[Satellite]
VERSION=1.1
NAME=AEROCUBE 4.5A
NICKNAME=AEROCUBE 4.5A
TLE1=1 38767U 12048K   20157.68509858  .00000433  00000-0  50231-4 0  9995
TLE2=2 38767  64.6665 273.1132 0142185 140.5079 220.6501 14.92286762 40043
STATUS=0
